CCSDS_OMM_VERS = 2.0
CREATION_DATE  = 
ORIGINATOR     = 

OBJECT_NAME    = ALOS (DAICHI)
OBJECT_ID      = 2006-002A
CENTER_NAME    = EARTH
REF_FRAME      = TEME
TIME_SYSTEM    = UTC
MEAN_ELEMENT_THEORY = SGP/SGP4

EPOCH          = 2025-12-17T17:37:14.152512
MEAN_MOTION    = 14.69501788
ECCENTRICITY   = .00013612
INCLINATION    = 98.1098
RA_OF_ASC_NODE = 303.1864
ARG_OF_PERICENTER = 113.5739
MEAN_ANOMALY   = 246.5610

EPHEMERIS_TYPE = 0
CLASSIFICATION_TYPE = U
NORAD_CAT_ID   = 28931
ELEMENT_SET_NO = 999
REV_AT_EPOCH   = 6144
BSTAR          = .19545051E-3
MEAN_MOTION_DOT = .111E-4
MEAN_MOTION_DDOT = 0

CCSDS_OMM_VERS = 2.0
CREATION_DATE  = 
ORIGINATOR     = 

OBJECT_NAME    = H-2A R/B
OBJECT_ID      = 2006-002B
CENTER_NAME    = EARTH
REF_FRAME      = TEME
TIME_SYSTEM    = UTC
MEAN_ELEMENT_THEORY = SGP/SGP4

EPOCH          = 2025-12-29T19:53:18.513600
MEAN_MOTION    = 15.14936506
ECCENTRICITY   = .005483
INCLINATION    = 98.2317
RA_OF_ASC_NODE = 139.9777
ARG_OF_PERICENTER = 118.7134
MEAN_ANOMALY   = 241.9622

EPHEMERIS_TYPE = 0
CLASSIFICATION_TYPE = U
NORAD_CAT_ID   = 28932
ELEMENT_SET_NO = 999
REV_AT_EPOCH   = 8385
BSTAR          = .73996E-3
MEAN_MOTION_DOT = .1426E-3
MEAN_MOTION_DDOT = 0

CCSDS_OMM_VERS = 2.0
CREATION_DATE  = 
ORIGINATOR     = 

OBJECT_NAME    = RESURS-DK 1
OBJECT_ID      = 2006-021A
CENTER_NAME    = EARTH
REF_FRAME      = TEME
TIME_SYSTEM    = UTC
MEAN_ELEMENT_THEORY = SGP/SGP4

EPOCH          = 2025-12-29T11:59:17.897280
MEAN_MOTION    = 15.12263597
ECCENTRICITY   = .0007017
INCLINATION    = 69.9345
RA_OF_ASC_NODE = 58.5218
ARG_OF_PERICENTER = 244.3960
MEAN_ANOMALY   = 115.6481

EPHEMERIS_TYPE = 0
CLASSIFICATION_TYPE = U
NORAD_CAT_ID   = 29228
ELEMENT_SET_NO = 999
REV_AT_EPOCH   = 7691
BSTAR          = .25728E-3
MEAN_MOTION_DOT = .4357E-4
MEAN_MOTION_DDOT = 0

CCSDS_OMM_VERS = 2.0
CREATION_DATE  = 
ORIGINATOR     = 

OBJECT_NAME    = CZ-4B R/B
OBJECT_ID      = 2006-046C
CENTER_NAME    = EARTH
REF_FRAME      = TEME
TIME_SYSTEM    = UTC
MEAN_ELEMENT_THEORY = SGP/SGP4

EPOCH          = 2025-12-29T17:35:25.900224
MEAN_MOTION    = 15.16054447
ECCENTRICITY   = .0034639
INCLINATION    = 97.5719
RA_OF_ASC_NODE = 43.8251
ARG_OF_PERICENTER = 147.8979
MEAN_ANOMALY   = 212.4372

EPHEMERIS_TYPE = 0
CLASSIFICATION_TYPE = U
NORAD_CAT_ID   = 29507
ELEMENT_SET_NO = 999
REV_AT_EPOCH   = 4944
BSTAR          = .4403E-3
MEAN_MOTION_DOT = .8533E-4
MEAN_MOTION_DDOT = 0

CCSDS_OMM_VERS = 2.0
CREATION_DATE  = 
ORIGINATOR     = 

OBJECT_NAME    = CZ-2C R/B
OBJECT_ID      = 2007-010B
CENTER_NAME    = EARTH
REF_FRAME      = TEME
TIME_SYSTEM    = UTC
MEAN_ELEMENT_THEORY = SGP/SGP4

EPOCH          = 2025-12-29T18:26:12.688224
MEAN_MOTION    = 14.20217250
ECCENTRICITY   = .0059811
INCLINATION    = 98.3975
RA_OF_ASC_NODE = 115.5622
ARG_OF_PERICENTER = 136.8208
MEAN_ANOMALY   = 223.7682

EPHEMERIS_TYPE = 0
CLASSIFICATION_TYPE = U
NORAD_CAT_ID   = 31114
ELEMENT_SET_NO = 999
REV_AT_EPOCH   = 96979
BSTAR          = .12001E-3
MEAN_MOTION_DOT = .22E-5
MEAN_MOTION_DDOT = 0

CCSDS_OMM_VERS = 2.0
CREATION_DATE  = 
ORIGINATOR     = 

OBJECT_NAME    = COSMO-SKYMED 1
OBJECT_ID      = 2007-023A
CENTER_NAME    = EARTH
REF_FRAME      = TEME
TIME_SYSTEM    = UTC
MEAN_ELEMENT_THEORY = SGP/SGP4

EPOCH          = 2025-12-29T20:18:24.367104
MEAN_MOTION    = 14.95900985
ECCENTRICITY   = .0001013
INCLINATION    = 97.8834
RA_OF_ASC_NODE = 189.3585
ARG_OF_PERICENTER = 80.8654
MEAN_ANOMALY   = 279.2681

EPHEMERIS_TYPE = 0
CLASSIFICATION_TYPE = U
NORAD_CAT_ID   = 31598
ELEMENT_SET_NO = 999
REV_AT_EPOCH   = 446
BSTAR          = .52161E-3
MEAN_MOTION_DOT = .5778E-4
MEAN_MOTION_DDOT = 0

CCSDS_OMM_VERS = 2.0
CREATION_DATE  = 
ORIGINATOR     = 

OBJECT_NAME    = COSMOS 2428
OBJECT_ID      = 2007-029A
CENTER_NAME    = EARTH
REF_FRAME      = TEME
TIME_SYSTEM    = UTC
MEAN_ELEMENT_THEORY = SGP/SGP4

EPOCH          = 2025-12-29T09:01:11.172864
MEAN_MOTION    = 14.12897712
ECCENTRICITY   = .00046207
INCLINATION    = 70.9372
RA_OF_ASC_NODE = 350.9499
ARG_OF_PERICENTER = 0.4432
MEAN_ANOMALY   = 359.6692

EPHEMERIS_TYPE = 0
CLASSIFICATION_TYPE = U
NORAD_CAT_ID   = 31792
ELEMENT_SET_NO = 999
REV_AT_EPOCH   = 95416
BSTAR          = .19500901E-3
MEAN_MOTION_DOT = .315E-5
MEAN_MOTION_DDOT = 0

CCSDS_OMM_VERS = 2.0
CREATION_DATE  = 
ORIGINATOR     = 

OBJECT_NAME    = SL-16 R/B
OBJECT_ID      = 2007-029B
CENTER_NAME    = EARTH
REF_FRAME      = TEME
TIME_SYSTEM    = UTC
MEAN_ELEMENT_THEORY = SGP/SGP4

EPOCH          = 2025-12-29T07:24:10.745280
MEAN_MOTION    = 14.14821765
ECCENTRICITY   = .0001928
INCLINATION    = 70.9770
RA_OF_ASC_NODE = 320.3283
ARG_OF_PERICENTER = 268.7371
MEAN_ANOMALY   = 261.9874

EPHEMERIS_TYPE = 0
CLASSIFICATION_TYPE = U
NORAD_CAT_ID   = 31793
ELEMENT_SET_NO = 999
REV_AT_EPOCH   = 95541
BSTAR          = .16875E-3
MEAN_MOTION_DOT = .278E-5
MEAN_MOTION_DDOT = 0

CCSDS_OMM_VERS = 2.0
CREATION_DATE  = 
ORIGINATOR     = 

OBJECT_NAME    = KORONAS-FOTON
OBJECT_ID      = 2009-003A
CENTER_NAME    = EARTH
REF_FRAME      = TEME
TIME_SYSTEM    = UTC
MEAN_ELEMENT_THEORY = SGP/SGP4

EPOCH          = 2025-12-29T10:31:57.375264
MEAN_MOTION    = 15.41520378
ECCENTRICITY   = .00130424
INCLINATION    = 82.4308
RA_OF_ASC_NODE = 348.7975
ARG_OF_PERICENTER = 56.8974
MEAN_ANOMALY   = 303.3522

EPHEMERIS_TYPE = 0
CLASSIFICATION_TYPE = U
NORAD_CAT_ID   = 33504
ELEMENT_SET_NO = 999
REV_AT_EPOCH   = 93491
BSTAR          = .29396459E-3
MEAN_MOTION_DOT = .12406E-3
MEAN_MOTION_DDOT = 0

CCSDS_OMM_VERS = 2.0
CREATION_DATE  = 
ORIGINATOR     = 

OBJECT_NAME    = CZ-2C R/B
OBJECT_ID      = 2011-030B
CENTER_NAME    = EARTH
REF_FRAME      = TEME
TIME_SYSTEM    = UTC
MEAN_ELEMENT_THEORY = SGP/SGP4

EPOCH          = 2025-12-29T18:08:51.586368
MEAN_MOTION    = 14.80957318
ECCENTRICITY   = .0051791
INCLINATION    = 97.8435
RA_OF_ASC_NODE = 317.4887
ARG_OF_PERICENTER = 216.7760
MEAN_ANOMALY   = 207.2157

EPHEMERIS_TYPE = 0
CLASSIFICATION_TYPE = U
NORAD_CAT_ID   = 37731
ELEMENT_SET_NO = 999
REV_AT_EPOCH   = 77974
BSTAR          = .25433E-3
MEAN_MOTION_DOT = .1959E-4
MEAN_MOTION_DDOT = 0

CCSDS_OMM_VERS = 2.0
CREATION_DATE  = 
ORIGINATOR     = 

OBJECT_NAME    = H-2A R/B
OBJECT_ID      = 2012-025E
CENTER_NAME    = EARTH
REF_FRAME      = TEME
TIME_SYSTEM    = UTC
MEAN_ELEMENT_THEORY = SGP/SGP4

EPOCH          = 2025-12-29T18:42:43.632288
MEAN_MOTION    = 14.94564880
ECCENTRICITY   = .0044869
INCLINATION    = 98.4621
RA_OF_ASC_NODE = 320.3272
ARG_OF_PERICENTER = 179.3084
MEAN_ANOMALY   = 180.8205

EPHEMERIS_TYPE = 0
CLASSIFICATION_TYPE = U
NORAD_CAT_ID   = 38341
ELEMENT_SET_NO = 999
REV_AT_EPOCH   = 73777
BSTAR          = .46288E-3
MEAN_MOTION_DOT = .5038E-4
MEAN_MOTION_DDOT = 0

CCSDS_OMM_VERS = 2.0
CREATION_DATE  = 
ORIGINATOR     = 

OBJECT_NAME    = SHIJIAN-16 (SJ-16)
OBJECT_ID      = 2013-057A
CENTER_NAME    = EARTH
REF_FRAME      = TEME
TIME_SYSTEM    = UTC
MEAN_ELEMENT_THEORY = SGP/SGP4

EPOCH          = 2025-12-29T21:39:11.254176
MEAN_MOTION    = 14.92057125
ECCENTRICITY   = .0018026
INCLINATION    = 74.9733
RA_OF_ASC_NODE = 317.1790
ARG_OF_PERICENTER = 280.1822
MEAN_ANOMALY   = 79.7333

EPHEMERIS_TYPE = 0
CLASSIFICATION_TYPE = U
NORAD_CAT_ID   = 39358
ELEMENT_SET_NO = 999
REV_AT_EPOCH   = 66109
BSTAR          = .75433E-3
MEAN_MOTION_DOT = .766E-4
MEAN_MOTION_DDOT = 0

