ALOS (DAICHI)           
1 28931U 06002A   25351.73419158  .00001110  00000+0  19545-3 0  9994
2 28931  98.1098 303.1864 0001361 113.5739 246.5610 14.69501788 61443
H-2A R/B                
1 28932U 06002B   25363.82868650  .00014260  00000+0  73996-3 0  9993
2 28932  98.2317 139.9777 0054830 118.7134 241.9622 15.14936506 83854
RESURS-DK 1             
1 29228U 06021A   25363.49951270  .00004357  00000+0  25728-3 0  9993
2 29228  69.9345  58.5218 0007017 244.3960 115.6481 15.12263597 76913
CZ-4B R/B               
1 29507U 06046C   25363.73293866  .00008533  00000+0  44030-3 0  9994
2 29507  97.5719  43.8251 0034639 147.8979 212.4372 15.16054447 49445
CZ-2C R/B               
1 31114U 07010B   25363.76820241  .00000220  00000+0  12001-3 0  9997
2 31114  98.3975 115.5622 0059811 136.8208 223.7682 14.20217250969791
COSMO-SKYMED 1          
1 31598U 07023A   25363.84611536  .00005778  00000+0  52161-3 0  9995
2 31598  97.8834 189.3585 0001013  80.8654 279.2681 14.95900985  4461
COSMOS 2428             
1 31792U 07029A   25363.37582376  .00000315  00000+0  19501-3 0  9997
2 31792  70.9372 350.9499 0004620   0.4432 359.6692 14.12897712954163
SL-16 R/B               
1 31793U 07029B   25363.30845770  .00000278  00000+0  16875-3 0  9990
2 31793  70.9770 320.3283 0001928 268.7371 261.9874 14.14821765955410
KORONAS-FOTON           
1 33504U 09003A   25363.43885851  .00012406  00000+0  29396-3 0  9992
2 33504  82.4308 348.7975 0013042  56.8974 303.3522 15.41520378934914
CZ-2C R/B               
1 37731U 11030B   25363.75615262  .00001959  00000+0  25433-3 0  9992
2 37731  97.8435 317.4887 0051791 216.7760 207.2157 14.80957318779743
H-2A R/B                
1 38341U 12025E   25363.77967167  .00005038  00000+0  46288-3 0  9994
2 38341  98.4621 320.3272 0044869 179.3084 180.8205 14.94564880737777
SHIJIAN-16 (SJ-16)      
1 39358U 13057A   25363.90221359  .00007660  00000+0  75433-3 0  9997
2 39358  74.9733 317.1790 0018026 280.1822  79.7333 14.92057125661091
